STARLINK-31278          
1 59163U 24044M   26068.53082861  .00001143  00000+0  51076-4 0  9994
2 59163  43.0038 107.7183 0001994 287.1664  72.8969 15.27566797113548
KUIPER-00226            
1 67785U 26030X   26068.62629313  .00046834  00000+0  15530-2 0  9998
2 67785  51.8814 220.1252 0017713  64.2781 296.0030 15.30655594  5078
